IRIDIUM 130             
1 43073U 17083D   25136.06087055  .00000012  00000+0 -28459-5 0  9990
2 43073  86.3951 128.2755 0002674  93.4039 266.7463 14.34217688387194
IRIDIUM 151             
1 43074U 17083E   25135.33781500  .00000032  00000+0  44202-5 0  9991
2 43074  86.3944 128.3901 0002587  87.9367 272.2125 14.34217606387115
IRIDIUM 134             
1 43075U 17083F   25136.07355575 -.00000016  00000+0 -12721-4 0  9997
2 43075  86.3949 128.0851 0002424  94.7195 265.4278 14.34217367387181
IRIDIUM 137             
1 43076U 17083G   25135.52809153  .00000027  00000+0  25240-5 0  9994
2 43076  86.3948 128.3978 0002835  79.3646 280.7869 14.34217473387173
IRIDIUM 141             
1 43077U 17083H   25135.52174476  .00000024  00000+0  15809-5 0  9995
2 43077  86.3943 128.2536 0002061  90.1763 269.9669 14.34217213387179
IRIDIUM 153             
1 43078U 17083J   25135.40415912  .00000045  00000+0  91224-5 0  9994
2 43078  86.3941  96.7736 0001841  93.4269 266.7137 14.34216951388265
IRIDIUM 131             
1 43079U 17083K   25135.36952672  .00000017  00000+0 -87872-6 0  9994
2 43079  86.3951 128.4769 0002068  85.7858 274.3574 14.34217566387088
IRIDIUM 144             
1 43249U 18030A   25135.34073487 -.00000005  00000+0 -88021-5 0  9996
2 43249  86.3938  96.7383 0002306  88.0693 272.0767 14.34217404373118
IRIDIUM 149             
1 43250U 18030B   25135.97499402  .00000010  00000+0 -35324-5 0  9999
2 43250  86.3938  96.4445 0002341  87.2980 272.8483 14.34217466373228
IRIDIUM 157             
1 43251U 18030C   25135.92424887  .00000221  00000+0  71799-4 0  9998
2 43251  86.3940  96.5101 0002144  80.7770 279.3668 14.34219620373195
IRIDIUM 140             
1 43252U 18030D   25135.94328128  .00000029  00000+0  32674-5 0  9998
2 43252  86.3940  96.5158 0002413  90.4008 269.7465 14.34217519373259
